{
  "norad_id": 68168,
  "name": "STARLINK-36984",
  "history": [
    {
      "epoch": "2026-04-11T20:00:01.000224Z",
      "apogee_km": 411.6261698633416,
      "perigee_km": 410.68924719356437,
      "latitude_deg": 50.589497002272715,
      "longitude_deg": 91.35604151478185,
      "height_km": 416.6777843715735,
      "semi_major_axis_km": 6789.294708528452,
      "eccentricity": 6.9e-05,
      "inclination_deg": 53.1604,
      "raan_deg": 116.4522,
      "arg_perigee_deg": 80.8719,
      "mean_anomaly_deg": 24.6967,
      "mean_motion_rev_day": 15.51907281
    },
    {
      "epoch": "2026-04-13T06:00:02.000160Z",
      "apogee_km": 419.52107431169316,
      "perigee_km": 417.95303546723153,
      "latitude_deg": 53.06106355140785,
      "longitude_deg": -84.0303789676531,
      "height_km": 424.4653953766762,
      "semi_major_axis_km": 6796.874054889462,
      "eccentricity": 0.00011535,
      "inclination_deg": 53.1599,
      "raan_deg": 109.6717,
      "arg_perigee_deg": 88.7037,
      "mean_anomaly_deg": 5.9544,
      "mean_motion_rev_day": 15.49312155
    },
    {
      "epoch": "2026-04-14T20:00:01.999008Z",
      "apogee_km": 419.73341445515325,
      "perigee_km": 417.9594017856325,
      "latitude_deg": -48.62242104808427,
      "longitude_deg": -98.66120749398031,
      "height_km": 436.3806400731851,
      "semi_major_axis_km": 6796.983408120393,
      "eccentricity": 0.0001305,
      "inclination_deg": 53.1596,
      "raan_deg": 102.1027,
      "arg_perigee_deg": 92.3167,
      "mean_anomaly_deg": 198.4565,
      "mean_motion_rev_day": 15.49274766
    },
    {
      "epoch": "2026-04-15T20:00:01.999008Z",
      "apogee_km": 419.6054787309922,
      "perigee_km": 418.1060621258357,
      "latitude_deg": 48.28551378711717,
      "longitude_deg": 76.62419708694598,
      "height_km": 423.55646325021866,
      "semi_major_axis_km": 6796.992770428414,
      "eccentricity": 0.0001103,
      "inclination_deg": 53.1588,
      "raan_deg": 97.3211,
      "arg_perigee_deg": 95.5042,
      "mean_anomaly_deg": 15.9658,
      "mean_motion_rev_day": 15.49271565
    },
    {
      "epoch": "2026-04-16T06:21:32.482656Z",
      "apogee_km": 419.2645851764082,
      "perigee_km": 418.12815463696097,
      "latitude_deg": 4.844423189878209e-05,
      "longitude_deg": 155.4551362987301,
      "height_km": 419.112913624437,
      "semi_major_axis_km": 6796.833369906684,
      "eccentricity": 8.36e-05,
      "inclination_deg": 53.1597,
      "raan_deg": 95.2556,
      "arg_perigee_deg": 30.4065,
      "mean_anomaly_deg": 329.6993,
      "mean_motion_rev_day": 15.49326066
    },
    {
      "epoch": "2026-04-17T22:36:43.602912Z",
      "apogee_km": 419.42473905084626,
      "perigee_km": 417.9302554791884,
      "latitude_deg": -1.7532866430733672e-06,
      "longitude_deg": -98.00836864112203,
      "height_km": 419.2537096688169,
      "semi_major_axis_km": 6796.814497265017,
      "eccentricity": 0.00010994,
      "inclination_deg": 53.1621,
      "raan_deg": 87.2416,
      "arg_perigee_deg": 63.7984,
      "mean_anomaly_deg": 296.3138,
      "mean_motion_rev_day": 15.49332519
    },
    {
      "epoch": "2026-04-18T15:38:31.958592Z",
      "apogee_km": 419.537668909702,
      "perigee_km": 417.61283999924035,
      "latitude_deg": 5.512808340517105e-05,
      "longitude_deg": 2.4441904896196043,
      "height_km": 419.49974550752427,
      "semi_major_axis_km": 6796.712254454471,
      "eccentricity": 0.0001416,
      "inclination_deg": 53.1616,
      "raan_deg": 83.845,
      "arg_perigee_deg": 91.1305,
      "mean_anomaly_deg": 268.9867,
      "mean_motion_rev_day": 15.49367479
    },
    {
      "epoch": "2026-04-18T15:38:31.959456Z",
      "apogee_km": 419.53773687682497,
      "perigee_km": 417.6127720321174,
      "latitude_deg": 5.4205424401563765e-05,
      "longitude_deg": 2.4441861924095263,
      "height_km": 419.499746848398,
      "semi_major_axis_km": 6796.712254454471,
      "eccentricity": 0.00014161,
      "inclination_deg": 53.1616,
      "raan_deg": 83.845,
      "arg_perigee_deg": 91.1305,
      "mean_anomaly_deg": 268.9867,
      "mean_motion_rev_day": 15.49367479
    },
    {
      "epoch": "2026-04-20T01:42:09.588384Z",
      "apogee_km": 419.55020174559195,
      "perigee_km": 417.8702929799347,
      "latitude_deg": -1.8051315716408572e-06,
      "longitude_deg": -156.64705722974395,
      "height_km": 420.41186823803366,
      "semi_major_axis_km": 6796.8472473627635,
      "eccentricity": 0.00012358,
      "inclination_deg": 53.1609,
      "raan_deg": 77.0594,
      "arg_perigee_deg": 161.1438,
      "mean_anomaly_deg": 198.9617,
      "mean_motion_rev_day": 15.49321321
    },
    {
      "epoch": "2026-04-21T05:34:15.758976Z",
      "apogee_km": 423.2445599045732,
      "perigee_km": 415.1108931028375,
      "latitude_deg": -1.3075550911570809e-05,
      "longitude_deg": 138.6315071841621,
      "height_km": 419.5587380151599,
      "semi_major_axis_km": 6797.314726503705,
      "eccentricity": 0.0005983,
      "inclination_deg": 53.1614,
      "raan_deg": 71.5082,
      "arg_perigee_deg": 277.5017,
      "mean_anomaly_deg": 82.5312,
      "mean_motion_rev_day": 15.49161494
    },
    {
      "epoch": "2026-04-23T14:00:04.000032Z",
      "apogee_km": 443.51718429050925,
      "perigee_km": 441.3093721654459,
      "latitude_deg": 45.65476507968503,
      "longitude_deg": 129.04808352996758,
      "height_km": 446.1924427205884,
      "semi_major_axis_km": 6820.550278227977,
      "eccentricity": 0.00016185,
      "inclination_deg": 53.1599,
      "raan_deg": 60.3566,
      "arg_perigee_deg": 98.7626,
      "mean_anomaly_deg": 18.1827,
      "mean_motion_rev_day": 15.41251953
    }
  ]
}